NORAD_CAT_ID,OBJECT_NAME,OBJECT_TYPE,EPOCH,MEAN_MOTION,ECCENTRICITY,INCLINATION,RA_OF_ASC_NODE,ARG_OF_PERICENTER,MEAN_ANOMALY,BSTAR,MEAN_MOTION_DOT,MEAN_MOTION_DDOT,TLE_LINE0,TLE_LINE1,TLE_LINE2,SEMIMAJOR_AXIS,PERIOD,APOGEE,PERIGEE,DECAYED
52998.0,STARLINK-4254,PAYLOAD,2023-09-06 12:13:13,15.08843001,0.0001336,53.2154,242.4393,87.3988,272.7157,0.00013518,1.864e-05,0.0,0 STARLINK-4254,1 52998U 22076N   23249.50918201  .00001864  00000-0  13518-3 0  9996,2 52998  53.2154 242.4393 0001336  87.3988 272.7157 15.08843001 64683,6917.871,95.437,540.66,538.812,0.0
52998.0,STARLINK-4254,PAYLOAD,2023-09-06 16:59:23,15.08835959,0.0001216,53.2145,241.546,86.2181,273.895,6.821e-05,7.98e-06,0.0,0 STARLINK-4254,1 52998U 22076N   23249.70790836  .00000798  00000-0  68210-4 0  9995,2 52998  53.2145 241.5460 0001216  86.2181 273.8950 15.08835959 65180,6917.893,95.438,540.599,538.917,0.0
52998.0,STARLINK-4254,PAYLOAD,2023-09-07 08:53:14,15.08840221,0.0001298,53.2147,238.5721,89.1593,270.9548,1.6268e-06,-2.62e-06,0.0,0 STARLINK-4254,1 52998U 22076N   23250.37030828 -.00000262  00000-0  16268-5 0  9992,2 52998  53.2147 238.5721 0001298  89.1593 270.9548 15.08840221 64815,6917.88,95.438,540.643,538.847,0.0
52998.0,STARLINK-4254,PAYLOAD,2023-09-08 05:33:14,15.08845504,0.0001447,53.2134,234.706,88.4052,271.7106,1.5336e-05,-4.4e-07,0.0,0 STARLINK-4254,1 52998U 22076N   23251.23142285 -.00000044  00000-0  15336-4 0  9991,2 52998  53.2134 234.7060 0001447  88.4052 271.7106 15.08845504 65418,6917.864,95.437,540.73,538.728,0.0
52998.0,STARLINK-4254,PAYLOAD,2023-09-08 10:19:23,15.08849167,0.0001353,53.2159,233.814,91.1094,269.0053,5.563e-05,5.98e-06,0.0,0 STARLINK-4254,1 52998U 22076N   23251.43013855  .00000598  00000-0  55630-4 0  9997,2 52998  53.2159 233.8140 0001353  91.1094 269.0053 15.08849167 64977,6917.852,95.437,540.653,538.781,0.0
52998.0,STARLINK-4254,PAYLOAD,2023-09-09 02:13:16,15.08836804,0.0001509,53.2163,230.84,92.2861,267.8304,2.2287e-05,6.7e-07,0.0,0 STARLINK-4254,1 52998U 22076N   23252.09254750  .00000067  00000-0  22287-4 0  9994,2 52998  53.2163 230.8400 0001509  92.2861 267.8304 15.08836804 65548,6917.89,95.438,540.799,538.711,0.0
52998.0,STARLINK-4254,PAYLOAD,2023-09-09 08:34:48,15.08841224,0.0001513,53.2163,229.6509,92.0586,268.058,4.2232e-05,3.84e-06,0.0,0 STARLINK-4254,1 52998U 22076N   23252.35750401  .00000384  00000-0  42232-4 0  9991,2 52998  53.2163 229.6509 0001513  92.0586 268.0580 15.08841224 65115,6917.877,95.437,540.788,538.695,0.0
52998.0,STARLINK-4254,PAYLOAD,2023-09-10 06:50:12,15.08842973,0.0001423,53.2169,225.4871,90.672,269.4435,1.708e-06,-2.61e-06,0.0,0 STARLINK-4254,1 52998U 22076N   23253.28486470 -.00000261  00000-0  17080-5 0  9995,2 52998  53.2169 225.4871 0001423  90.6720 269.4435 15.08842973 65724,6917.871,95.437,540.721,538.752,0.0
52998.0,STARLINK-4254,PAYLOAD,2023-09-11 01:54:50,15.08831954,0.0001417,53.2172,221.9221,100.8761,259.2391,-3.9591e-05,-9.18e-06,0.0,0 STARLINK-4254,1 52998U 22076N   23254.07975584 -.00000918  00000-0 -39591-4 0  9992,2 52998  53.2172 221.9221 0001417 100.8761 259.2391 15.08831954 65848,6917.905,95.438,540.75,538.79,0.0
52998.0,STARLINK-4254,PAYLOAD,2023-09-11 06:41:00,15.08833429,0.0001378,53.2171,221.0305,98.0365,262.0784,-3.4359e-05,-8.35e-06,0.0,0 STARLINK-4254,1 52998U 22076N   23254.27847592 -.00000835  00000-0 -34359-4 0  9996,2 52998  53.2171 221.0305 0001378  98.0365 262.0784 15.08833429 65404,6917.9,95.438,540.719,538.812,0.0
52998.0,STARLINK-4254,PAYLOAD,2023-09-12 01:45:37,15.08837452,0.0001434,53.2172,217.4618,100.4484,259.6669,5.4014e-05,5.72e-06,0.0,0 STARLINK-4254,1 52998U 22076N   23255.07335327  .00000572  00000-0  54014-4 0  9999,2 52998  53.2172 217.4618 0001434 100.4484 259.6669 15.08837452 65992,6917.888,95.438,540.745,538.761,0.0
52998.0,STARLINK-4254,PAYLOAD,2023-09-12 06:31:46,15.08843383,0.0001274,53.2162,216.5688,94.2801,265.8337,8.6231e-05,1.085e-05,0.0,0 STARLINK-4254,1 52998U 22076N   23255.27206927  .00001085  00000-0  86231-4 0  9990,2 52998  53.2162 216.5688 0001274  94.2801 265.8337 15.08843383 65556,6917.87,95.437,540.616,538.854,0.0
52998.0,STARLINK-4254,PAYLOAD,2023-09-13 01:36:24,15.08837995,0.0001275,53.2161,213.0004,90.3429,269.7709,9.6871e-05,1.254e-05,0.0,0 STARLINK-4254,1 52998U 22076N   23256.06695405  .00001254  00000-0  96871-4 0  9990,2 52998  53.2161 213.0004 0001275  90.3429 269.7709 15.08837995 66147,6917.887,95.438,540.634,538.869,0.0
52998.0,STARLINK-4254,PAYLOAD,2023-09-13 06:22:33,15.08848711,0.0001373,53.2165,212.1092,91.5753,268.5396,0.00019821,2.869e-05,0.0,0 STARLINK-4254,1 52998U 22076N   23256.26566520  .00002869  00000-0  19821-3 0  9999,2 52998  53.2165 212.1092 0001373  91.5753 268.5396 15.08848711 66170,6917.854,95.437,540.669,538.769,0.0
52998.0,STARLINK-4254,PAYLOAD,2023-09-13 20:41:02,15.08840162,0.0001685,53.2163,209.433,81.0553,279.063,1.2029e-06,-2.69e-06,0.0,0 STARLINK-4254,1 52998U 22076N   23256.86183812 -.00000269  00000-0  12029-5 0  9992,2 52998  53.2163 209.4330 0001685  81.0553 279.0630 15.08840162 65797,6917.88,95.438,540.911,538.579,0.0
52998.0,STARLINK-4254,PAYLOAD,2023-09-14 03:02:35,15.08840778,0.0001432,53.2165,208.2422,107.8025,252.3124,-2.1831e-05,-6.35e-06,0.0,0 STARLINK-4254,1 52998U 22076N   23257.12679578 -.00000635  00000-0 -21831-4 0  9999,2 52998  53.2165 208.2422 0001432 107.8025 252.3124 15.08840778 66302,6917.878,95.438,540.734,538.752,0.0
52998.0,STARLINK-4254,PAYLOAD,2023-09-14 06:13:21,15.08843575,0.000141,53.2165,207.6482,88.109,272.0064,1.6997e-05,-1.7e-07,0.0,0 STARLINK-4254,1 52998U 22076N   23257.25927430 -.00000017  00000-0  16997-4 0  9996,2 52998  53.2165 207.6482 0001410  88.1090 272.0064 15.08843575 65859,6917.869,95.437,540.71,538.759,0.0
52998.0,STARLINK-4254,PAYLOAD,2023-09-15 06:04:08,15.08851296,0.0001486,53.2165,203.1851,107.3721,252.7433,-0.0001009,-1.894e-05,0.0,0 STARLINK-4254,1 52998U 22076N   23258.25287306 -.00001894  00000-0 -10090-3 0  9990,2 52998  53.2165 203.1851 0001486 107.3721 252.7433 15.08851296 66471,6917.846,95.437,540.739,538.683,0.0
52998.0,STARLINK-4254,PAYLOAD,2023-09-16 05:54:55,15.08846143,0.0001387,53.2169,198.7248,97.6683,262.4466,7.9214e-05,9.73e-06,0.0,0 STARLINK-4254,1 52998U 22076N   23259.24647075  .00000973  00000-0  79214-4 0  9992,2 52998  53.2169 198.7248 0001387  97.6683 262.4466 15.08846143 66156,6917.862,95.437,540.686,538.767,0.0
52998.0,STARLINK-4254,PAYLOAD,2023-09-17 02:34:56,15.08828608,0.000137,53.2168,194.8595,101.1894,258.9253,0.00019418,2.803e-05,0.0,0 STARLINK-4254,1 52998U 22076N   23260.10759894  .00002803  00000-0  19418-3 0  9995,2 52998  53.2168 194.8595 0001370 101.1894 258.9253 15.08828608 66750,6917.915,95.438,540.728,538.832,0.0
52998.0,STARLINK-4254,PAYLOAD,2023-09-17 05:45:42,15.08843313,0.0001369,53.2168,194.2648,102.2888,257.8258,6.5737e-05,7.59e-06,0.0,0 STARLINK-4254,1 52998U 22076N   23260.24007498  .00000759  00000-0  65737-4 0  9990,2 52998  53.2168 194.2648 0001369 102.2888 257.8258 15.08843313 66771,6917.87,95.437,540.682,538.788,0.0
52998.0,STARLINK-4254,PAYLOAD,2023-09-18 04:01:06,15.08849245,0.0001384,53.2177,190.1051,96.5092,263.6058,5.9207e-05,6.55e-06,0.0,0 STARLINK-4254,1 52998U 22076N   23261.16743183  .00000655  00000-0  59207-4 0  9990,2 52998  53.2177 190.1051 0001384  96.5092 263.6058 15.08849245 66440,6917.852,95.437,540.675,538.76,0.0
52998.0,STARLINK-4254,PAYLOAD,2023-09-19 02:16:30,15.08843385,0.0001519,53.2181,185.9435,107.5564,252.5594,9.4042e-05,1.209e-05,0.0,0 STARLINK-4254,1 52998U 22076N   23262.09479492  .00001209  00000-0  94042-4 0  9994,2 52998  53.2181 185.9435 0001519 107.5564 252.5594 15.08843385 67059,6917.87,95.437,540.786,538.684,0.0
52998.0,STARLINK-4254,PAYLOAD,2023-09-20 05:18:02,15.08855566,0.0001371,53.2175,180.886,91.655,268.4599,0.00010595,1.399e-05,0.0,0 STARLINK-4254,1 52998U 22076N   23263.22086392  .00001399  00000-0  10595-3 0  9993,2 52998  53.2175 180.8860 0001371  91.6550 268.4599 15.08855566 67226,6917.833,95.437,540.646,538.749,0.0
52998.0,STARLINK-4254,PAYLOAD,2023-09-20 11:39:37,15.08831042,0.000157,53.2178,179.6961,83.6583,276.4588,-9.1606e-05,-1.745e-05,0.0,0 STARLINK-4254,1 52998U 22076N   23263.48584768 -.00001745  00000-0 -91606-4 0  9991,2 52998  53.2178 179.6961 0001570  83.6583 276.4588 15.08831042 67269,6917.908,95.438,540.859,538.687,0.0
52998.0,STARLINK-4254,PAYLOAD,2023-09-20 14:50:25,15.08805402,0.0001582,53.2158,179.1053,94.8559,265.2613,-0.00020179,-3.495e-05,0.0,0 STARLINK-4254,1 52998U 22076N   23263.61834865 -.00003495  00000-0 -20179-3 0  9992,2 52998  53.2158 179.1053 0001582  94.8559 265.2613 15.08805402 67282,6917.986,95.44,540.946,538.757,0.0
52998.0,STARLINK-4254,PAYLOAD,2023-09-21 03:33:31,15.08810912,0.0001458,53.2157,176.7217,83.67,276.4458,-0.00025227,-4.297e-05,0.0,0 STARLINK-4254,1 52998U 22076N   23264.14827624 -.00004297  00000-0 -25227-3 0  9996,2 52998  53.2157 176.7217 0001458  83.6700 276.4458 15.08810912 66891,6917.969,95.439,540.843,538.826,0.0
52998.0,STARLINK-4254,PAYLOAD,2023-09-22 03:24:14,15.08866318,0.0001436,53.2175,172.2607,87.2721,272.8436,0.00021036,3.064e-05,0.0,0 STARLINK-4254,1 52998U 22076N   23265.14183316  .00003064  00000-0  21036-3 0  9993,2 52998  53.2175 172.2607 0001436  87.2721 272.8436 15.08866318 67511,6917.8,95.436,540.658,538.672,0.0
52998.0,STARLINK-4254,PAYLOAD,2023-09-22 20:53:29,15.08844127,0.0001628,53.218,168.9849,92.9575,267.1604,0.00028463,4.245e-05,0.0,0 STARLINK-4254,1 52998U 22076N   23265.87048416  .00004245  00000-0  28463-3 0  9997,2 52998  53.2180 168.9849 0001628  92.9575 267.1604 15.08844127 67158,6917.868,95.437,540.859,538.607,0.0
52998.0,STARLINK-4254,PAYLOAD,2023-09-23 00:04:16,15.08840903,0.0001555,53.2154,168.3976,82.072,278.0448,0.00048168,7.386e-05,0.0,0 STARLINK-4254,1 52998U 22076N   23266.00296632  .00007386  00000-0  48168-3 0  9991,2 52998  53.2154 168.3976 0001555  82.0720 278.0448 15.08840903 67644,6917.878,95.437,540.818,538.667,0.0
